NETSAT-1                
1 46506U 20068W   23198.39359916  .00005806  00000+0  38699-3 0  9991
2 46506  97.7630 144.1750 0010361  86.7335 273.5077 15.07434612153452
NETSAT-2                
1 46507U 20068X   23198.37292920  .00006367  00000+0  41870-3 0  9999
2 46507  97.7628 144.2152 0010054  92.3407 267.8972 15.07900215153401
SAI-1 NANOCONNECT-2     
1 47701U 21015C   23198.72572094  .00068622  00000+0  11337-2 0  9997
2 47701  97.3835 282.7883 0007456 123.3840 236.8127 15.51983114132886
WILDTRACKCUBE-SIMBA     
1 47941U 21022K   23199.06115061  .00008986  00000+0  51525-3 0  9997
2 47941  97.4948  95.5632 0017551 225.6461 134.3333 15.12674150127678
BEESAT-6                
1 47957U 21022AB  23198.46565324  .00021151  00000+0  97400-3 0  9999
2 47957  97.4919  97.1063 0014546 217.5963 142.4256 15.20228971127531
SMOG-1                  
1 47964U 21022AJ  23198.23511471  .00021380  00000+0  93235-3 0  9992
2 47964  97.4961  99.0025 0013526 202.3756 157.6892 15.22108103126645
BCCSAT-1                
1 48041U 21022AK  23198.44315256  .00017359  00000+0  81209-3 0  9994
2 48041  97.4961  98.0207 0011297 201.4335 158.6428 15.19764234126576
BEESAT-5                
1 48083U 21022AM  23197.15849670  .00017352  00000+0  76396-3 0  9993
2 48083  97.4828  96.0391 0013977 220.5520 139.4676 15.21820842126495
BEESAT-7                
1 48084U 21022AN  23197.99512392  .00017767  00000+0  80332-3 0  9999
2 48084  97.4912  96.7802 0014306 217.9782 142.0445 15.20899463126196
BEESAT-8                
1 48085U 21022AP  23198.46391580  .00010778  00000+0  54893-3 0  9995
2 48085  97.4970  96.5775 0015785 221.7824 138.2205 15.16862898126772
LEDSAT                  
1 49069U 21073D   23198.91070012  .00009203  00000+0  49706-3 0  9996
2 49069  97.4816 269.2727 0023752  18.1621 342.0454 15.14693013105559
SPORT                   
1 55129U 98067UW  23198.59988866  .00099256  00000+0  69207-3 0  9991
2 55129  51.6295 161.9059 0000587  69.6469 290.4593 15.73536317 31325
OPTIMAL-1               
1 55183U 98067VA  23198.33149343  .00213608  00000+0  83880-3 0  9994
2 55183  51.6344 157.8584 0001498  46.9135 313.1994 15.85781006 30076
BEIJING 1               
1 28890U 05043A   23199.09425582  .00000425  00000+0  94497-4 0  9995
2 28890  98.1630 320.3201 0015450  20.3150 339.8662 14.61844274944930
HJ-1A                   
1 33320U 08041A   23199.09839397  .00000967  00000+0  13859-3 0  9996
2 33320  97.6431 217.8810 0021440  28.2600 331.9771 14.78527323800831
HJ-1B                   
1 33321U 08041B   23199.08011621  .00001599  00000+0  21985-3 0  9999
2 33321  97.6450 222.2126 0040685  71.1019 289.4597 14.79049917800827
YAOGAN 4                
1 33446U 08061A   23198.80862425  .00001481  00000+0  21002-3 0  9994
2 33446  97.8518 133.0138 0014381 296.3465  63.6269 14.78408834787989
DEIMOS-1                
1 35681U 09041A   23199.07965137  .00000645  00000+0  10864-3 0  9995
2 35681  97.6836  34.1519 0002546  60.3670 299.7792 14.72586291749983
UK-DMC 2                
1 35683U 09041C   23199.04374923  .00001017  00000+0  16852-3 0  9998
2 35683  97.7366 356.7257 0001777  90.1244 270.0168 14.72219070749683
RISAT 1                 
1 38248U 12017A   23199.06593729  .00007881  00000+0  40574-3 0  9997
2 38248  97.5396 211.9265 0002967   4.7976 355.3285 15.16682362618690
DMC3-FM1                
1 40715U 15032A   23199.07914657  .00000816  00000+0  10726-3 0  9994
2 40715  97.7963  82.0797 0004841 320.7484  39.3378 14.82804315431904
DMC3-FM2                
1 40716U 15032B   23199.03345446  .00000817  00000+0  10744-3 0  9996
2 40716  97.8011  82.8971 0006729 321.0179  39.0549 14.82819206431894
DMC3-FM3                
1 40717U 15032C   23199.05735208  .00000844  00000+0  11082-3 0  9994
2 40717  97.8052  84.0101 0008266 316.5268  43.5294 14.82793739431906
SAUDISAT 1C             
1 27607U 02058C   23198.42359501  .00001254  00000+0  18961-3 0  9998
2 27607  64.5533 172.2241 0066140 218.5334 141.1039 14.77401074106902
SAUDISAT 2              
1 28371U 04025F   23198.85100673  .00000484  00000+0  12318-3 0  9998
2 28371  98.4339 162.7747 0024791 332.0798  27.9067 14.54971766 10774
SAUDISAT 3              
1 31118U 07012B   23198.78321983  .00000461  00000+0  85399-4 0  9996
2 31118  98.0143 142.4775 0015561  22.5697 337.6190 14.69724177871216
PISAT                   
1 41784U 16059B   23198.79880325  .00001220  00000+0  23594-3 0  9990
2 41784  97.8678 230.8018 0031140   0.8681 359.2571 14.64779000363546
FLYING LAPTOP           
1 42831U 17042G   23198.84883673  .00001593  00000+0  15721-3 0  9998
2 42831  97.3901  34.7440 0014802 120.0702 240.1988 14.93192632327068
SALSAT                  
1 46495U 20068K   23198.58015214  .00004941  00000+0  32441-3 0  9997
2 46495  97.7715 146.9121 0016110  24.1641 336.0339 15.08011965153650
PROBA-1                 
1 26958U 01049B   23199.13358717  .00003625  00000+0  29273-3 0  9994
2 26958  97.8758 165.7666 0071128 102.6981 258.2204 14.98500156183687
BIRD 2                  
1 26959U 01049C   23198.32336473  .00101731  00000+0  68402-3 0  9994
2 26959  97.7742 328.3398 0001682 354.7663   5.3583 15.74874134208284
CUTE-1 (CO-55)          
1 27844U 03031E   23198.98105443  .00000431  00000+0  21156-3 0  9994
2 27844  98.6773 205.7862 0010628  42.3029 317.8967 14.22816638 40145
CUBESAT XI-IV (CO-57)   
1 27848U 03031J   23199.00279711  .00000370  00000+0  18605-3 0  9999
2 27848  98.6809 206.2116 0010741  55.9529 304.2668 14.22322787 39938
GENESIS 1               
1 29252U 06029A   23198.45644717  .00009328  00000+0  35186-3 0  9995
2 29252  64.5175 208.5133 0021092 211.6075 148.3787 15.27374978939213
GENESIS 2               
1 31789U 07028A   23198.50942175  .00008678  00000+0  32846-3 0  9995
2 31789  64.4930 252.6299 0056323 257.7943 101.6872 15.26054580886099
APRIZESAT 4             
1 35684U 09041D   23199.08869384  .00001045  00000+0  14181-3 0  9997
2 35684  98.2821 230.8916 0046622 160.1004 200.2039 14.80430856753638
APRIZESAT 3             
1 35686U 09041F   23199.10606631  .00001468  00000+0  15454-3 0  9999
2 35686  98.1014 299.6129 0069523 333.0473  26.7139 14.89326469757514
PROBA-2                 
1 36037U 09059B   23198.46425938  .00000302  00000+0  82953-4 0  9991
2 36037  98.2265  22.7567 0012795 336.0132  24.0467 14.53560410726720
APRIZESAT 5             
1 37792U 11044E   23199.10269236  .00000982  00000+0  14494-3 0  9994
2 37792  98.2734  90.1264 0056721 180.4727 179.6438 14.76625251641508
APRIZESAT 6             
1 37793U 11044F   23198.44766411  .00000838  00000+0  13561-3 0  9992
2 37793  98.3501  67.9325 0044826 242.8905 241.4559 14.73491857640169
PROBA-V                 
1 39159U 13021A   23199.00313553  .00000150  00000+0  84511-4 0  9996
2 39159  98.3186 219.0667 0004630  29.4057 330.7382 14.23130710529582
APRIZESAT 7             
1 39416U 13066A   23198.41741678  .00001502  00000+0  17658-3 0  9997
2 39416  97.6211 165.2926 0040927 134.7235 225.7326 14.85703533522688
APRIZESAT 8             
1 39425U 13066K   23198.41344502  .00001124  00000+0  14273-3 0  9992
2 39425  97.6797 157.6967 0050231 184.9933 175.0786 14.82702708521730
BUGSAT-1 (TITA)         
1 40014U 14033E   23198.45111526  .00003979  00000+0  32407-3 0  9994
2 40014  98.1313 218.7702 0032408 169.2659 190.9262 14.99727627495267
SAUDISAT 4              
1 40016U 14033G   23198.43585416  .00000762  00000+0  11533-3 0  9991
2 40016  97.6424  16.6517 0046250 300.3869  59.2774 14.76232699488673
APRIZESAT 9             
1 40018U 14033J   23199.00325322  .00000708  00000+0  11894-3 0  9995
2 40018  97.7571 354.4455 0070701  24.5957 335.8595 14.70983715486919
APRIZESAT 10            
1 40019U 14033K   23198.94190299  .00000830  00000+0  14556-3 0  9995
2 40019  97.8198 345.0813 0084271  74.7692 286.2812 14.67976352485982
TDS 1                   
1 40076U 14037H   23198.78716353  .00005118  00000+0  55174-3 0  9994
2 40076  98.3420  97.5177 0005246 221.9018 138.1797 14.88891769488536
TIANTUO 2               
1 40144U 14053B   23199.03777285  .00013939  00000+0  28816-3 0  9991
2 40144  97.1598 277.0679 0008788 192.5971 167.5061 15.45882132496012
TECHNOSAT               
1 42829U 17042E   23199.07162143  .00002754  00000+0  26419-3 0  9999
2 42829  97.3874  34.6683 0014704 119.1588 241.1107 14.93781991327105
FLYING LAPTOP           
1 42831U 17042G   23198.84883673  .00001593  00000+0  15721-3 0  9998
2 42831  97.3901  34.7440 0014802 120.0702 240.1988 14.93192632327068
HAWK-A                  
1 43765U 18099H   23198.82124387  .00003202  00000+0  26425-3 0  9998
2 43765  97.5694 261.2199 0014442  19.6784 340.4994 14.99612805252330
HAWK-B                  
1 43794U 18099AN  23198.82160765  .00003157  00000+0  26065-3 0  9999
2 43794  97.5693 261.2192 0014432  19.9226 340.2558 14.99611451252326
HAWK-C                  
1 43799U 18099AT  23198.42109278  .00003284  00000+0  27097-3 0  9999
2 43799  97.5693 260.7288 0014394  21.0484 339.1329 14.99608716252264
SALSAT                  
1 46495U 20068K   23198.58015214  .00004941  00000+0  32441-3 0  9997
2 46495  97.7715 146.9121 0016110  24.1641 336.0339 15.08011965153650
HAWK-2C                 
1 47502U 21006CT  23198.64517808  .00011283  00000+0  55799-3 0  9991
2 47502  97.3839 251.8957 0008878   8.5549 351.5835 15.17953243137054
HAWK-2A                 
1 47505U 21006CW  23199.04088778  .00012025  00000+0  59410-3 0  9997
2 47505  97.3841 252.3895 0008860   5.6008 354.5324 15.17970031137113
HAWK-2B                 
1 47508U 21006CZ  23199.04126960  .00011844  00000+0  58517-3 0  9991
2 47508  97.3838 252.2809 0009168   7.3151 352.8215 15.17973023137110
HAWK-3B                 
1 48931U 21059BE  23198.37171137  .00008152  00000+0  37078-3 0  9998
2 48931  97.5884 332.5340 0014714 171.0937 189.0562 15.20899119113879
